[{"OBJECT_NAME":"YAOGAN-36 05B","OBJECT_ID":"2023-106C","EPOCH":"2026-03-09T23:10:00.235200","MEAN_MOTION":15.17368279,"ECCENTRICITY":0.00161406,"INCLINATION":34.9961,"RA_OF_ASC_NODE":339.5115,"ARG_OF_PERICENTER":302.2426,"MEAN_ANOMALY":57.6723,"EPHEMERIS_TYPE":0,"CLASSIFICATION_TYPE":"U","NORAD_CAT_ID":57454,"ELEMENT_SET_NO":999,"REV_AT_EPOCH":14578,"BSTAR":0.00041497757,"MEAN_MOTION_DOT":8.482e-5,"MEAN_MOTION_DDOT":0},{"OBJECT_NAME":"CZ-4B DEB","OBJECT_ID":"2010-051E","EPOCH":"2026-03-08T22:01:50.125728","MEAN_MOTION":15.23766972,"ECCENTRICITY":0.00561086,"INCLINATION":97.769,"RA_OF_ASC_NODE":240.5013,"ARG_OF_PERICENTER":301.1291,"MEAN_ANOMALY":58.4449,"EPHEMERIS_TYPE":0,"CLASSIFICATION_TYPE":"U","NORAD_CAT_ID":38184,"ELEMENT_SET_NO":999,"REV_AT_EPOCH":82066,"BSTAR":0.0024566319,"MEAN_MOTION_DOT":0.00062123,"MEAN_MOTION_DDOT":0}]
